IRIDIUM 116             
1 43072U 17083C   24347.62508225  .00000310  00000+0  10375-3 0  9997
2 43072  86.3992 192.5142 0001820  90.5757 269.5647 14.34216640365119
IRIDIUM 130             
1 43073U 17083D   24347.66313629  .00000500  00000+0  17161-3 0  9995
2 43073  86.4000 192.7198 0001836  83.2072 276.9332 14.34214950365069
IRIDIUM 151             
1 43074U 17083E   24347.70754320  .00000492  00000+0  16866-3 0  9999
2 43074  86.3994 192.5251 0002051  91.4996 268.6435 14.34214949365098
IRIDIUM 134             
1 43075U 17083F   24347.46651637  .00000350  00000+0  11777-3 0  9999
2 43075  86.3996 192.6264 0001838  86.4750 273.6656 14.34219244365027
IRIDIUM 137             
1 43076U 17083G   24347.61874397  .00000508  00000+0  17430-3 0  9994
2 43076  86.3997 192.6440 0001900 103.1961 256.9447 14.34219740365119
IRIDIUM 141             
1 43077U 17083H   24347.61240057  .00000500  00000+0  17140-3 0  9995
2 43077  86.3992 192.5091 0002215  79.5716 280.5729 14.34220170365115
IRIDIUM 153             
1 43078U 17083J   24347.84365114  .00000050  00000+0  10808-4 0  9998
2 43078  86.3985 160.9391 0002497  80.9310 279.2168 14.34217751366257
IRIDIUM 131             
1 43079U 17083K   24347.59971297  .00000464  00000+0  15851-3 0  9997
2 43079  86.3997 192.6633 0002105  87.7519 272.3918 14.34219299365046
